STARLINK-32094          
1 59696U 24086Q   26068.39579129 -.00001236  00000+0 -35419-4 0  9991
2 59696  43.0013  61.8558 0000827 278.2145  81.8613 15.27575061104064
NUSAT-50 (NANCY ROMAN)  
1 60493U 24149AB  26068.80227738  .00012094  00000+0  42252-3 0  9994
2 60493  97.3817 150.7693 0002523 238.0469 122.0527 15.29713355 86930
